{"type": "FeatureCollection", "features": [ {"type": "Feature", "properties": {"norad_id": 34031, "name": "COSMOS 2251 DEB", "group": "cosmos-2251-debris", "lat": -52.18430187014526, "lon": 86.91312955532838, "alt_km": 696.4143335258195, "timestamp": "2025-12-26T22:28:06.178978+00:00", "meta": {"OBJECT_NAME": "COSMOS 2251 DEB", "OBJECT_ID": "1993-036HS", "EPOCH": "2025-12-26T18:29:21.007392", "MEAN_MOTION": 14.59849832, "ECCENTRICITY": 0.0022819, "INCLINATION": 74.0129, "RA_OF_ASC_NODE": 108.9078, "ARG_OF_PERICENTER": 228.8294, "MEAN_ANOMALY": 284.7207, "EPHEMERIS_TYPE": 0, "CLASSIFICATION_TYPE": "U", "NORAD_CAT_ID": 34031, "ELEMENT_SET_NO": 999, "REV_AT_EPOCH": 88770, "BSTAR": 0.0013911, "MEAN_MOTION_DOT": 6.654e-05, "MEAN_MOTION_DDOT": 0}, "tle": {"line1": "1 34031U 93036HS  25360.77038203  .00006654  00000+0  13911-2 0  9995", "line2": "2 34031  74.0129 108.9078 0022819 228.8294 284.7207 14.59849832887709"}}, "geometry": {"type": "Point", "coordinates": [86.91312955532838, -52.18430187014526]}}, {"type": "Feature", "properties": {"norad_id": 34035, "name": "COSMOS 2251 DEB", "group": "cosmos-2251-debris", "lat": 66.84344337740534, "lon": 4.347876499919718, "alt_km": 723.5659799018222, "timestamp": "2025-12-26T22:28:06.178989+00:00", "meta": {"OBJECT_NAME": "COSMOS 2251 DEB", "OBJECT_ID": "1993-036HW", "EPOCH": "2025-12-26T17:26:24.098784", "MEAN_MOTION": 14.52128892, "ECCENTRICITY": 0.0045304, "INCLINATION": 74.0661, "RA_OF_ASC_NODE": 322.8327, "ARG_OF_PERICENTER": 321.8105, "MEAN_ANOMALY": 95.8938, "EPHEMERIS_TYPE": 0, "CLASSIFICATION_TYPE": "U", "NORAD_CAT_ID": 34035, "ELEMENT_SET_NO": 999, "REV_AT_EPOCH": 88169, "BSTAR": 0.0020011, "MEAN_MOTION_DOT": 8.197e-05, "MEAN_MOTION_DDOT": 0}, "tle": {"line1": "1 34035U 93036HW  25360.72666781  .00008197  00000+0  20011-2 0  9995", "line2": "2 34035  74.0661 322.8327 0045304 321.8105  95.8938 14.52128892881690"}}, "geometry": {"type": "Point", "coordinates": [4.347876499919718, 66.84344337740534]}}, {"type": "Feature", "properties": {"norad_id": 34036, "name": "COSMOS 2251 DEB", "group": "cosmos-2251-debris", "lat": 31.548537152000222, "lon": 130.72175049701315, "alt_km": 579.3209861735204, "timestamp": "2025-12-26T22:28:06.178999+00:00", "meta": {"OBJECT_NAME": "COSMOS 2251 DEB", "OBJECT_ID": "1993-036HX", "EPOCH": "2025-12-26T09:28:56.976096", "MEAN_MOTION": 14.96076264, "ECCENTRICITY": 0.0009447, "INCLINATION": 74.0196, "RA_OF_ASC_NODE": 121.6817, "ARG_OF_PERICENTER": 146.936, "MEAN_ANOMALY": 213.2417, "EPHEMERIS_TYPE": 0, "CLASSIFICATION_TYPE": "U", "NORAD_CAT_ID": 34036, "ELEMENT_SET_NO": 999, "REV_AT_EPOCH": 88774, "BSTAR": 0.0038531, "MEAN_MOTION_DOT": 0.00043587, "MEAN_MOTION_DDOT": 0}, "tle": {"line1": "1 34036U 93036HX  25360.39510389  .00043587  00000+0  38531-2 0  9999", "line2": "2 34036  74.0196 121.6817 0009447 146.9360 213.2417 14.96076264887743"}}, "geometry": {"type": "Point", "coordinates": [130.72175049701315, 31.548537152000222]}}, {"type": "Feature", "properties": {"norad_id": 34037, "name": "COSMOS 2251 DEB", "group": "cosmos-2251-debris", "lat": -44.28491329916002, "lon": -139.34542962198154, "alt_km": 816.3614255434386, "timestamp": "2025-12-26T22:28:06.179010+00:00", "meta": {"OBJECT_NAME": "COSMOS 2251 DEB", "OBJECT_ID": "1993-036HY", "EPOCH": "2025-12-26T18:04:22.041696", "MEAN_MOTION": 14.34699826, "ECCENTRICITY": 0.0051826, "INCLINATION": 74.0508, "RA_OF_ASC_NODE": 24.7939, "ARG_OF_PERICENTER": 70.4255, "MEAN_ANOMALY": 290.2482, "EPHEMERIS_TYPE": 0, "CLASSIFICATION_TYPE": "U", "NORAD_CAT_ID": 34037, "ELEMENT_SET_NO": 999, "REV_AT_EPOCH": 87918, "BSTAR": 0.00045121, "MEAN_MOTION_DOT": 1.271e-05, "MEAN_MOTION_DDOT": 0}, "tle": {"line1": "1 34037U 93036HY  25360.75303289  .00001271  00000+0  45121-3 0  9997", "line2": "2 34037  74.0508  24.7939 0051826  70.4255 290.2482 14.34699826879184"}}, "geometry": {"type": "Point", "coordinates": [-139.34542962198154, -44.28491329916002]}}, {"type": "Feature", "properties": {"norad_id": 34040, "name": "COSMOS 2251 DEB", "group": "cosmos-2251-debris", "lat": -29.199939040553616, "lon": 33.1501191485534, "alt_km": 776.507843517199, "timestamp": "2025-12-26T22:28:06.179020+00:00", "meta": {"OBJECT_NAME": "COSMOS 2251 DEB", "OBJECT_ID": "1993-036JB", "EPOCH": "2025-12-26T12:04:49.528128", "MEAN_MOTION": 13.68399292, "ECCENTRICITY": 0.0343511, "INCLINATION": 73.9555, "RA_OF_ASC_NODE": 43.1198, "ARG_OF_PERICENTER": 353.7079, "MEAN_ANOMALY": 5.9771, "EPHEMERIS_TYPE": 0, "CLASSIFICATION_TYPE": "U", "NORAD_CAT_ID": 34040, "ELEMENT_SET_NO": 999, "REV_AT_EPOCH": 83788, "BSTAR": 0.00085916, "MEAN_MOTION_DOT": 1.086e-05, "MEAN_MOTION_DDOT": 0}, "tle": {"line1": "1 34040U 93036JB  25360.50335102  .00001086  00000+0  85916-3 0  9993", "line2": "2 34040  73.9555  43.1198 0343511 353.7079   5.9771 13.68399292837889"}}, "geometry": {"type": "Point", "coordinates": [33.1501191485534, -29.199939040553616]}}, {"type": "Feature", "properties": {"norad_id": 34045, "name": "COSMOS 2251 DEB", "group": "cosmos-2251-debris", "lat": -55.971496211333246, "lon": 129.93248044650184, "alt_km": 795.6018341674553, "timestamp": "2025-12-26T22:28:06.179030+00:00", "meta": {"OBJECT_NAME": "COSMOS 2251 DEB", "OBJECT_ID": "1993-036JG", "EPOCH": "2025-12-26T18:06:00.279360", "MEAN_MOTION": 14.34076786, "ECCENTRICITY": 0.0026249, "INCLINATION": 74.0396, "RA_OF_ASC_NODE": 285.1889, "ARG_OF_PERICENTER": 4.9405, "MEAN_ANOMALY": 15.4922, "EPHEMERIS_TYPE": 0, "CLASSIFICATION_TYPE": "U", "NORAD_CAT_ID": 34045, "ELEMENT_SET_NO": 999, "REV_AT_EPOCH": 88234, "BSTAR": 0.00010829, "MEAN_MOTION_DOT": 2.78e-06, "MEAN_MOTION_DDOT": 0}, "tle": {"line1": "1 34045U 93036JG  25360.75416990  .00000278  00000+0  10829-3 0  9993", "line2": "2 34045  74.0396 285.1889 0026249   4.9405  15.4922 14.34076786882347"}}, "geometry": {"type": "Point", "coordinates": [129.93248044650184, -55.971496211333246]}}, {"type": "Feature", "properties": {"norad_id": 34046, "name": "COSMOS 2251 DEB", "group": "cosmos-2251-debris", "lat": 32.98002425662128, "lon": 153.26194451203452, "alt_km": 726.8328755787452, "timestamp": "2025-12-26T22:28:06.179041+00:00", "meta": {"OBJECT_NAME": "COSMOS 2251 DEB", "OBJECT_ID": "1993-036JH", "EPOCH": "2025-12-25T22:40:20.639712", "MEAN_MOTION": 14.46580903, "ECCENTRICITY": 0.0074571, "INCLINATION": 74.0399, "RA_OF_ASC_NODE": 345.8148, "ARG_OF_PERICENTER": 65.3438, "MEAN_ANOMALY": 317.8928, "EPHEMERIS_TYPE": 0, "CLASSIFICATION_TYPE": "U", "NORAD_CAT_ID": 34046, "ELEMENT_SET_NO": 999, "REV_AT_EPOCH": 88017, "BSTAR": 0.0013151, "MEAN_MOTION_DOT": 4.884e-05, "MEAN_MOTION_DDOT": 0}, "tle": {"line1": "1 34046U 93036JH  25359.94468333  .00004884  00000+0  13151-2 0  9998", "line2": "2 34046  74.0399 345.8148 0074571  65.3438 317.8928 14.46580903880179"}}, "geometry": {"type": "Point", "coordinates": [153.26194451203452, 32.98002425662128]}}, {"type": "Feature", "properties": {"norad_id": 34050, "name": "COSMOS 2251 DEB", "group": "cosmos-2251-debris", "lat": -30.565061490192914, "lon": -23.999499146571534, "alt_km": 877.3745120609383, "timestamp": "2025-12-26T22:28:06.179051+00:00", "meta": {"OBJECT_NAME": "COSMOS 2251 DEB", "OBJECT_ID": "1993-036JM", "EPOCH": "2025-12-26T16:16:35.279040", "MEAN_MOTION": 13.9621437, "ECCENTRICITY": 0.0214884, "INCLINATION": 74.0883, "RA_OF_ASC_NODE": 346.1415, "ARG_OF_PERICENTER": 46.9114, "MEAN_ANOMALY": 67.3857, "EPHEMERIS_TYPE": 0, "CLASSIFICATION_TYPE": "U", "NORAD_CAT_ID": 34050, "ELEMENT_SET_NO": 999, "REV_AT_EPOCH": 85626, "BSTAR": 0.00087948, "MEAN_MOTION_DOT": 1.446e-05, "MEAN_MOTION_DDOT": 0}, "tle": {"line1": "1 34050U 93036JM  25360.67818610  .00001446  00000+0  87948-3 0  9999", "line2": "2 34050  74.0883 346.1415 0214884  46.9114  67.3857 13.96214370856269"}}, "geometry": {"type": "Point", "coordinates": [-23.999499146571534, -30.565061490192914]}}, {"type": "Feature", "properties": {"norad_id": 34053, "name": "COSMOS 2251 DEB", "group": "cosmos-2251-debris", "lat": 61.89004022891678, "lon": -107.83793135417345, "alt_km": 907.0081978877197, "timestamp": "2025-12-26T22:28:06.179061+00:00", "meta": {"OBJECT_NAME": "COSMOS 2251 DEB", "OBJECT_ID": "1993-036JQ", "EPOCH": "2025-12-26T15:02:38.951808", "MEAN_MOTION": 13.49181379, "ECCENTRICITY": 0.0422948, "INCLINATION": 73.8425, "RA_OF_ASC_NODE": 219.7929, "ARG_OF_PERICENTER": 6.0641, "MEAN_ANOMALY": 354.5355, "EPHEMERIS_TYPE": 0, "CLASSIFICATION_TYPE": "U", "NORAD_CAT_ID": 34053, "ELEMENT_SET_NO": 999, "REV_AT_EPOCH": 82871, "BSTAR": 0.00055816, "MEAN_MOTION_DOT": 5.87e-06, "MEAN_MOTION_DDOT": 0}, "tle": {"line1": "1 34053U 93036JQ  25360.62683972  .00000587  00000+0  55816-3 0  9992", "line2": "2 34053  73.8425 219.7929 0422948   6.0641 354.5355 13.49181379828713"}}, "geometry": {"type": "Point", "coordinates": [-107.83793135417345, 61.89004022891678]}}, {"type": "Feature", "properties": {"norad_id": 34056, "name": "COSMOS 2251 DEB", "group": "cosmos-2251-debris", "lat": -70.58327381334107, "lon": -3.1930391578958512, "alt_km": 918.7937761039384, "timestamp": "2025-12-26T22:28:06.179072+00:00", "meta": {"OBJECT_NAME": "COSMOS 2251 DEB", "OBJECT_ID": "1993-036JT", "EPOCH": "2025-12-26T13:01:30.156096", "MEAN_MOTION": 14.20602883, "ECCENTRICITY": 0.0123665, "INCLINATION": 74.058, "RA_OF_ASC_NODE": 51.6952, "ARG_OF_PERICENTER": 95.8955, "MEAN_ANOMALY": 334.0123, "EPHEMERIS_TYPE": 0, "CLASSIFICATION_TYPE": "U", "NORAD_CAT_ID": 34056, "ELEMENT_SET_NO": 999, "REV_AT_EPOCH": 86607, "BSTAR": 0.00071474, "MEAN_MOTION_DOT": 1.637e-05, "MEAN_MOTION_DDOT": 0}, "tle": {"line1": "1 34056U 93036JT  25360.54271014  .00001637  00000+0  71474-3 0  9991", "line2": "2 34056  74.0580  51.6952 0123665  95.8955 334.0123 14.20602883866073"}}, "geometry": {"type": "Point", "coordinates": [-3.1930391578958512, -70.58327381334107]}}]}